NORAD_CAT_ID,OBJECT_NAME,OBJECT_TYPE,EPOCH,MEAN_MOTION,ECCENTRICITY,INCLINATION,RA_OF_ASC_NODE,ARG_OF_PERICENTER,MEAN_ANOMALY,BSTAR,MEAN_MOTION_DOT,MEAN_MOTION_DDOT,TLE_LINE0,TLE_LINE1,TLE_LINE2,SEMIMAJOR_AXIS,PERIOD,APOGEE,PERIGEE,DECAYED
54796.0,STARLINK-5415,PAYLOAD,2023-04-24 06:12:08,15.0886663,0.0002069,53.2186,64.4327,111.9273,248.194,0.00030729,4.609e-05,0.0,0 STARLINK-5415,1 54796U 22175AQ  23114.25842698  .00004609  00000-0  30729-3 0  9996,2 54796  53.2186  64.4327 0002069 111.9273 248.1940 15.08866630 19398,6917.799,95.436,541.095,538.233,0.0
54796.0,STARLINK-5415,PAYLOAD,2023-04-25 02:52:08,15.08863569,0.0001785,53.2175,60.5662,103.8178,256.3013,0.00039834,6.061e-05,0.0,0 STARLINK-5415,1 54796U 22175AQ  23115.11954400  .00006061  00000-0  39834-3 0  9997,2 54796  53.2175  60.5662 0001785 103.8178 256.3013 15.08863569 19528,6917.808,95.436,540.908,538.439,0.0
54796.0,STARLINK-5415,PAYLOAD,2023-04-25 06:02:54,15.08862523,0.0001682,53.2187,59.9718,103.2338,256.8841,0.00030997,4.652e-05,0.0,0 STARLINK-5415,1 54796U 22175AQ  23115.25202237  .00004652  00000-0  30997-3 0  9991,2 54796  53.2187  59.9718 0001682 103.2338 256.8841 15.08862523 21709,6917.812,95.436,540.84,538.513,0.0
54796.0,STARLINK-5415,PAYLOAD,2023-04-26 07:29:07,15.08809905,0.000148,53.2193,55.2163,125.7151,234.3979,-0.00040648,-6.746e-05,0.0,0 STARLINK-5415,1 54796U 22175AQ  23116.31189723 -.00006746  00000-0 -40648-3 0  9995,2 54796  53.2193  55.2163 0001480 125.7151 234.3979 15.08809905 21862,6917.972,95.439,540.861,538.814,0.0
54796.0,STARLINK-5415,PAYLOAD,2023-04-27 02:33:45,15.08835744,9.81e-05,53.2186,51.6489,103.6301,256.48,8.25e-05,1.025e-05,0.0,0 STARLINK-5415,1 54796U 22175AQ  23117.10677483  .00001025  00000-0  82500-4 0  9995,2 54796  53.2186  51.6489 0000981 103.6301 256.4800 15.08835744 19823,6917.893,95.438,540.437,539.08,0.0
54796.0,STARLINK-5415,PAYLOAD,2023-04-27 20:02:59,15.0885205,0.0001023,53.2198,48.377,103.7767,256.3339,0.00041629,6.346e-05,0.0,0 STARLINK-5415,1 54796U 22175AQ  23117.83541167  .00006346  00000-0  41629-3 0  9991,2 54796  53.2198  48.3770 0001023 103.7767 256.3339 15.08852050 19934,6917.844,95.437,540.416,539.001,0.0
54796.0,STARLINK-5415,PAYLOAD,2023-04-28 11:56:50,15.08868139,0.0001261,53.2188,45.4037,93.9681,266.1455,0.00037534,5.695e-05,0.0,0 STARLINK-5415,1 54796U 22175AQ  23118.49780525  .00005695  00000-0  37534-3 0  9993,2 54796  53.2188  45.4037 0001261  93.9681 266.1455 15.08868139 22191,6917.794,95.436,540.532,538.787,0.0
54796.0,STARLINK-5415,PAYLOAD,2023-04-29 02:15:18,15.08840367,0.0001536,53.2192,42.7377,130.1166,229.9961,-0.00017021,-2.996e-05,0.0,0 STARLINK-5415,1 54796U 22175AQ  23119.09396698 -.00002996  00000-0 -17021-3 0  9996,2 54796  53.2192  42.7377 0001536 130.1166 229.9961 15.08840367 20123,6917.879,95.438,540.807,538.682,0.0
54796.0,STARLINK-5415,PAYLOAD,2023-04-30 03:41:28,15.08855252,0.0001029,53.2179,37.9712,93.7689,266.3421,0.00074219,0.00011549,0.0,0 STARLINK-5415,1 54796U 22175AQ  23120.15380620  .00011549  00000-0  74219-3 0  9997,2 54796  53.2179  37.9712 0001029  93.7689 266.3421 15.08855252 20280,6917.834,95.437,540.411,538.987,0.0
54796.0,STARLINK-5415,PAYLOAD,2023-04-30 17:59:57,15.08846378,0.0002197,53.2178,35.3035,58.0657,302.0549,6.8433e-05,8.01e-06,0.0,0 STARLINK-5415,1 54796U 22175AQ  23120.74997225  .00000801  00000-0  68433-4 0  9998,2 54796  53.2178  35.3035 0002197  58.0657 302.0549 15.08846378 20373,6917.861,95.437,541.246,538.206,0.0
54796.0,STARLINK-5415,PAYLOAD,2023-05-01 03:32:16,15.08841978,0.0001106,53.2184,33.5111,89.5975,270.5144,0.00029879,4.471e-05,0.0,0 STARLINK-5415,1 54796U 22175AQ  23121.14741290  .00004471  00000-0  29879-3 0  9999,2 54796  53.2184  33.5111 0001106  89.5975 270.5144 15.08841978 22593,6917.874,95.437,540.504,538.974,0.0
54796.0,STARLINK-5415,PAYLOAD,2023-05-01 17:50:44,15.08841297,0.0001072,53.2183,30.8349,93.2764,266.8351,0.00047373,7.26e-05,0.0,0 STARLINK-5415,1 54796U 22175AQ  23121.74357473  .00007260  00000-0  47373-3 0  9999,2 54796  53.2183  30.8349 0001072  93.2764 266.8351 15.08841297 20528,6917.876,95.437,540.483,539.0,0.0
54796.0,STARLINK-5415,PAYLOAD,2023-05-02 00:12:17,15.08851636,0.0001136,53.2184,29.6459,90.5348,269.5774,0.00063359,9.813e-05,0.0,0 STARLINK-5415,1 54796U 22175AQ  23122.00853238  .00009813  00000-0  63359-3 0  9997,2 54796  53.2184  29.6459 0001136  90.5348 269.5774 15.08851636 22727,6917.845,95.437,540.496,538.924,0.0
54796.0,STARLINK-5415,PAYLOAD,2023-05-02 20:52:17,15.0885268,0.0001213,53.2181,25.7825,75.6654,284.4472,0.0003623,5.485e-05,0.0,0 STARLINK-5415,1 54796U 22175AQ  23122.86964939  .00005485  00000-0  36230-3 0  9991,2 54796  53.2181  25.7825 0001213  75.6654 284.4472 15.08852680 22853,6917.842,95.437,540.546,538.867,0.0
54796.0,STARLINK-5415,PAYLOAD,2023-05-03 03:13:49,15.08856565,0.0001108,53.2183,24.5912,90.1915,269.9205,0.0003704,5.615e-05,0.0,0 STARLINK-5415,1 54796U 22175AQ  23123.13460523  .00005615  00000-0  37040-3 0  9997,2 54796  53.2183  24.5912 0001108  90.1915 269.9205 15.08856565 20737,6917.83,95.437,540.461,538.928,0.0
54796.0,STARLINK-5415,PAYLOAD,2023-05-03 20:43:04,15.08838957,0.0001135,53.2182,21.3204,87.8313,272.2809,-1.0632e-05,-4.57e-06,0.0,0 STARLINK-5415,1 54796U 22175AQ  23123.86325125 -.00000457  00000-0 -10632-4 0  9995,2 54796  53.2182  21.3204 0001135  87.8313 272.2809 15.08838957 20844,6917.884,95.438,540.534,538.963,0.0
54796.0,STARLINK-5415,PAYLOAD,2023-05-04 03:04:37,15.08842013,0.0001159,53.2184,20.1311,83.6793,276.4331,6.342e-05,7.22e-06,0.0,0 STARLINK-5415,1 54796U 22175AQ  23124.12821083  .00000722  00000-0  63420-4 0  9995,2 54796  53.2184  20.1311 0001159  83.6793 276.4331 15.08842013 23043,6917.874,95.437,540.541,538.937,0.0
54796.0,STARLINK-5415,PAYLOAD,2023-05-04 20:33:51,15.08847167,0.0001116,53.2182,16.8602,80.3863,279.7255,0.0001948,2.814e-05,0.0,0 STARLINK-5415,1 54796U 22175AQ  23124.85684956  .00002814  00000-0  19480-3 0  9991,2 54796  53.2182  16.8602 0001116  80.3863 279.7255 15.08847167 23159,6917.858,95.437,540.496,538.951,0.0
54796.0,STARLINK-5415,PAYLOAD,2023-05-04 23:44:37,15.08854649,0.0001139,53.2182,16.2657,79.4065,280.7056,0.00046947,7.195e-05,0.0,0 STARLINK-5415,1 54796U 22175AQ  23124.98932772  .00007195  00000-0  46947-3 0  9992,2 54796  53.2182  16.2657 0001139  79.4065 280.7056 15.08854649 21018,6917.836,95.437,540.489,538.913,0.0
54796.0,STARLINK-5415,PAYLOAD,2023-05-05 20:24:39,15.08838347,0.0001138,53.2184,12.4008,82.6131,277.499,3.32e-05,2.41e-06,0.0,0 STARLINK-5415,1 54796U 22175AQ  23125.85045275  .00000241  00000-0  33200-4 0  9996,2 54796  53.2184  12.4008 0001138  82.6131 277.4990 15.08838347 21148,6917.885,95.438,540.538,538.963,0.0
54796.0,STARLINK-5415,PAYLOAD,2023-05-06 01:10:48,15.08841599,0.0001113,53.218,11.5085,80.5777,279.5341,0.00012114,1.641e-05,0.0,0 STARLINK-5415,1 54796U 22175AQ  23126.04917287  .00001641  00000-0  12114-3 0  9994,2 54796  53.2180  11.5085 0001113  80.5777 279.5341 15.08841599 23334,6917.876,95.437,540.51,538.971,0.0
54796.0,STARLINK-5415,PAYLOAD,2023-05-07 01:01:35,15.08851491,0.0001131,53.2185,7.049,85.7521,274.3601,0.00028599,4.268e-05,0.0,0 STARLINK-5415,1 54796U 22175AQ  23127.04276930  .00004268  00000-0  28599-3 0  9990,2 54796  53.2185   7.0490 0001131  85.7521 274.3601 15.08851491 21324,6917.845,95.437,540.493,538.928,0.0
54796.0,STARLINK-5415,PAYLOAD,2023-05-07 18:30:49,15.08838179,0.0002807,53.2161,3.7747,181.2173,178.8813,-2.1351e-05,-6.28e-06,0.0,0 STARLINK-5415,1 54796U 22175AQ  23127.77140782 -.00000628  00000-0 -21351-4 0  9993,2 54796  53.2161   3.7747 0002807 181.2173 178.8813 15.08838179 21435,6917.886,95.438,541.693,537.809,0.0
54796.0,STARLINK-5415,PAYLOAD,2023-05-07 21:41:36,15.08834888,0.0001382,53.216,3.1803,132.8719,227.239,1.5888e-05,-3.5e-07,0.0,0 STARLINK-5415,1 54796U 22175AQ  23127.90389712 -.00000035  00000-0  15888-4 0  9995,2 54796  53.2160   3.1803 0001382 132.8719 227.2390 15.08834888 23610,6917.896,95.438,540.717,538.805,0.0
54796.0,STARLINK-5415,PAYLOAD,2023-05-08 19:57:00,15.08845981,0.0001155,53.2175,359.0191,82.559,277.5533,0.0002823,4.209e-05,0.0,0 STARLINK-5415,1 54796U 22175AQ  23128.83126003  .00004209  00000-0  28230-3 0  9990,2 54796  53.2175 359.0191 0001155  82.5590 277.5533 15.08845981 21593,6917.862,95.437,540.526,538.928,0.0
54796.0,STARLINK-5415,PAYLOAD,2023-05-08 21:32:23,15.08849108,0.0001175,53.2166,358.7233,80.7503,279.3622,0.00035027,5.292e-05,0.0,0 STARLINK-5415,1 54796U 22175AQ  23128.89749960  .00005292  00000-0  35027-3 0  9994,2 54796  53.2166 358.7233 0001175  80.7503 279.3622 15.08849108 23767,6917.853,95.437,540.53,538.905,0.0
54796.0,STARLINK-5415,PAYLOAD,2023-05-08 23:07:47,15.08852605,0.000124,53.2171,358.424,80.915,279.1983,0.00055736,8.597e-05,0.0,0 STARLINK-5415,1 54796U 22175AQ  23128.96373932  .00008597  00000-0  55736-3 0  9994,2 54796  53.2171 358.4240 0001240  80.9150 279.1983 15.08852605 23776,6917.842,95.437,540.565,538.849,0.0
54796.0,STARLINK-5415,PAYLOAD,2023-05-09 21:23:10,15.08849436,0.0001256,53.217,354.2607,89.0089,271.1047,0.00029867,4.47e-05,0.0,0 STARLINK-5415,1 54796U 22175AQ  23129.89109794  .00004470  00000-0  29867-3 0  9992,2 54796  53.2170 354.2607 0001256  89.0089 271.1047 15.08849436 23911,6917.852,95.437,540.585,538.848,0.0
54796.0,STARLINK-5415,PAYLOAD,2023-05-10 21:13:57,15.08852355,0.0001156,53.2179,349.7987,88.9225,271.1899,0.00023663,3.481e-05,0.0,0 STARLINK-5415,1 54796U 22175AQ  23130.88469453  .00003481  00000-0  23663-3 0  9993,2 54796  53.2179 349.7987 0001156  88.9225 271.1899 15.08852355 21905,6917.843,95.437,540.507,538.908,0.0
54796.0,STARLINK-5415,PAYLOAD,2023-05-10 22:49:20,15.08852124,0.000111,53.2181,349.501,89.2304,270.8815,0.00023252,3.416e-05,0.0,0 STARLINK-5415,1 54796U 22175AQ  23130.95093421  .00003416  00000-0  23252-3 0  9991,2 54796  53.2181 349.5010 0001110  89.2304 270.8815 15.08852124 24074,6917.843,95.437,540.476,538.94,0.0
